start=new Date('2022-06-15T00:00:00.000Z').valueOf();
sats=[{"EPOCH":"2022-06-14T10:46:30.752256","APOAPSIS":"548.293","RA_OF_ASC_NODE":"225.9421","OBJECT_NAME":"STARLINK-2388","COUNTRY_CODE":"US","OBJECT_TYPE":"PAYLOAD","INCLINATION":"53.0553","DECAY_DATE":null,"OBJECT_ID":"2021-018W","PERIOD":"95.592","REF_FRAME":"TEME","SEMIMAJOR_AXIS":"6925.352","MEAN_ELEMENT_THEORY":"SGP4","ELEMENT_SET_NO":"999","MEAN_ANOMALY":"308.1712","MEAN_MOTION":"15.06398994","TLE_LINE2":"2 47807  53.0553 225.9421 0001554  51.9417 308.1712 15.06398994 71381","TIME_SYSTEM":"UTC","NORAD_CAT_ID":"47807","RCS_SIZE":"LARGE","PERIAPSIS":"546.140","ECCENTRICITY":"0.00015540","CENTER_NAME":"EARTH","LAUNCH_DATE":"2021-03-11","CLASSIFICATION_TYPE":"U","BSTAR":"-0.00000316400000","REV_AT_EPOCH":"7138","MEAN_MOTION_DOT":"-0.00000329","EPHEMERIS_TYPE":"0","FILE":"3495970","SITE":"AFETR","TLE_LINE1":"1 47807U 21018W   22165.44896704 -.00000329  00000-0 -31640-5 0  9991","ARG_OF_PERICENTER":"51.9417","GP_ID":"206137818","MEAN_MOTION_DDOT":"0.0000000000000"},{"NORAD_CAT_ID":"47808","TIME_SYSTEM":"UTC","TLE_LINE2":"2 47808  53.0544 249.9211 0001518  62.5356 297.5787 15.06405644 71132","MEAN_ANOMALY":"297.5787","MEAN_MOTION":"15.06405644","ELEMENT_SET_NO":"999","MEAN_ELEMENT_THEORY":"SGP4","SEMIMAJOR_AXIS":"6925.331","REF_FRAME":"TEME","PERIOD":"95.592","OBJECT_ID":"2021-018X","DECAY_DATE":null,"INCLINATION":"53.0544","OBJECT_TYPE":"PAYLOAD","COUNTRY_CODE":"US","OBJECT_NAME":"STARLINK-2389","RA_OF_ASC_NODE":"249.9211","APOAPSIS":"548.248","EPOCH":"2022-06-14T16:14:55.186368","MEAN_MOTION_DDOT":"0.0000000000000","GP_ID":"206168772","TLE_LINE1":"1 47808U 21018X   22165.67702762 -.00000229  00000-0  35565-5 0  9995","ARG_OF_PERICENTER":"62.5356","SITE":"AFETR","FILE":"3496199","MEAN_MOTION_DOT":"-0.00000229","EPHEMERIS_TYPE":"0","REV_AT_EPOCH":"7113","BSTAR":"0.00000355650000","CLASSIFICATION_TYPE":"U","CENTER_NAME":"EARTH","LAUNCH_DATE":"2021-03-11","ECCENTRICITY":"0.00015180","PERIAPSIS":"546.145","RCS_SIZE":"LARGE"},{"MEAN_MOTION_DDOT":"0.0000000000000","ARG_OF_PERICENTER":"48.0722","TLE_LINE1":"1 47809U 21018Y   22165.61480319  .00001558  00000-0  12350-3 0  9991","GP_ID":"206169022","SITE":"AFETR","FILE":"3496199","MEAN_MOTION_DOT":"0.00001558","EPHEMERIS_TYPE":"0","REV_AT_EPOCH":"7105","BSTAR":"0.00012350000000","CLASSIFICATION_TYPE":"U","CENTER_NAME":"EARTH","LAUNCH_DATE":"2021-03-11","ECCENTRICITY":"0.00014630","PERIAPSIS":"546.208","RCS_SIZE":"LARGE","NORAD_CAT_ID":"47809","TIME_SYSTEM":"UTC","TLE_LINE2":"2 47809  53.0562 255.1829 0001463  48.0722 312.0392 15.06397599 71057","MEAN_MOTION":"15.06397599","MEAN_ANOMALY":"312.0392","ELEMENT_SET_NO":"999","MEAN_ELEMENT_THEORY":"SGP4","SEMIMAJOR_AXIS":"6925.356","REF_FRAME":"TEME","PERIOD":"95.592","OBJECT_ID":"2021-018Y","DECAY_DATE":null,"INCLINATION":"53.0562","OBJECT_TYPE":"PAYLOAD","COUNTRY_CODE":"US","OBJECT_NAME":"STARLINK-2390","RA_OF_ASC_NODE":"255.1829","APOAPSIS":"548.234","EPOCH":"2022-06-14T14:45:18.995616"},{"RCS_SIZE":"LARGE","PERIAPSIS":"546.304","ECCENTRICITY":"0.00013510","CENTER_NAME":"EARTH","LAUNCH_DATE":"2021-03-11","CLASSIFICATION_TYPE":"U","BSTAR":"-0.00013299000000","MEAN_MOTION_DOT":"-0.00002261","EPHEMERIS_TYPE":"0","REV_AT_EPOCH":"7050","FILE":"3495806","SITE":"AFETR","TLE_LINE1":"1 47810U 21018Z   22165.57429431 -.00002261  00000-0 -13299-3 0  9993","ARG_OF_PERICENTER":"78.1988","GP_ID":"206113853","MEAN_MOTION_DDOT":"0.0000000000000","EPOCH":"2022-06-14T13:46:59.028384","APOAPSIS":"548.175","RA_OF_ASC_NODE":"265.3825","OBJECT_NAME":"STARLINK-2391","COUNTRY_CODE":"US","OBJECT_TYPE":"PAYLOAD","INCLINATION":"53.0541","DECAY_DATE":null,"OBJECT_ID":"2021-018Z","PERIOD":"95.593","REF_FRAME":"TEME","SEMIMAJOR_AXIS":"6925.374","MEAN_ELEMENT_THEORY":"SGP4","ELEMENT_SET_NO":"999","MEAN_MOTION":"15.06391554","MEAN_ANOMALY":"281.9152","TLE_LINE2":"2 47810  53.0541 265.3825 0001351  78.1988 281.9152 15.06391554 70501","TIME_SYSTEM":"UTC","NORAD_CAT_ID":"47810"},{"SITE":"AFETR","MEAN_MOTION_DDOT":"0.0000000000000","ARG_OF_PERICENTER":"73.2377","TLE_LINE1":"1 47811U 21018AA  22165.48122774  .00002124  00000-0  16144-3 0  9992","GP_ID":"206138318","EPHEMERIS_TYPE":"0","MEAN_MOTION_DOT":"0.00002124","REV_AT_EPOCH":"7131","FILE":"3495970","CLASSIFICATION_TYPE":"U","CENTER_NAME":"EARTH","LAUNCH_DATE":"2021-03-11","BSTAR":"0.00016144000000","PERIAPSIS":"546.151","RCS_SIZE":"LARGE","ECCENTRICITY":"0.00015500","ELEMENT_SET_NO":"999","MEAN_ELEMENT_THEORY":"SGP4","NORAD_CAT_ID":"47811","TLE_LINE2":"2 47811  53.0537 235.7935 0001550  73.2377 286.8782 15.06396413 71311","TIME_SYSTEM":"UTC","MEAN_MOTION":"15.06396413","MEAN_ANOMALY":"286.8782","OBJECT_ID":"2021-018AA","DECAY_DATE":null,"SEMIMAJOR_AXIS":"6925.360","REF_FRAME":"TEME","PERIOD":"95.592","OBJECT_TYPE":"PAYLOAD","COUNTRY_CODE":"US","INCLINATION":"53.0537","EPOCH":"2022-06-14T11:32:58.076736","OBJECT_NAME":"STARLINK-2392","RA_OF_ASC_NODE":"235.7935","APOAPSIS":"548.298"},{"APOAPSIS":"548.315","RA_OF_ASC_NODE":"265.9280","OBJECT_NAME":"STARLINK-2393","EPOCH":"2022-06-14T10:51:48.515904","INCLINATION":"53.0524","COUNTRY_CODE":"US","OBJECT_TYPE":"PAYLOAD","PERIOD":"95.592","REF_FRAME":"TEME","SEMIMAJOR_AXIS":"6925.342","DECAY_DATE":null,"OBJECT_ID":"2021-018AB","MEAN_ANOMALY":"300.0330","MEAN_MOTION":"15.06402239","TIME_SYSTEM":"UTC","TLE_LINE2":"2 47812  53.0524 265.9280 0001601  60.0818 300.0330 15.06402239 70824","NORAD_CAT_ID":"47812","MEAN_ELEMENT_THEORY":"SGP4","ELEMENT_SET_NO":"999","ECCENTRICITY":"0.00016010","RCS_SIZE":"LARGE","PERIAPSIS":"546.098","BSTAR":"-0.00006720900000","LAUNCH_DATE":"2021-03-11","CENTER_NAME":"EARTH","CLASSIFICATION_TYPE":"U","FILE":"3495970","REV_AT_EPOCH":"7082","MEAN_MOTION_DOT":"-0.00001283","EPHEMERIS_TYPE":"0","ARG_OF_PERICENTER":"60.0818","TLE_LINE1":"1 47812U 21018AB  22165.45264486 -.00001283  00000-0 -67209-4 0  9993","GP_ID":"206138570","MEAN_MOTION_DDOT":"0.0000000000000","SITE":"AFETR"},{"INCLINATION":"53.0563","OBJECT_TYPE":"PAYLOAD","COUNTRY_CODE":"US","RA_OF_ASC_NODE":"235.4000","APOAPSIS":"548.361","OBJECT_NAME":"STARLINK-2394","EPOCH":"2022-06-14T13:40:20.131680","MEAN_MOTION":"15.06396270","MEAN_ANOMALY":"287.2916","NORAD_CAT_ID":"47813","TLE_LINE2":"2 47813  53.0563 235.4000 0001641  72.8252 287.2916 15.06396270 71326","TIME_SYSTEM":"UTC","MEAN_ELEMENT_THEORY":"SGP4","ELEMENT_SET_NO":"999","PERIOD":"95.592","SEMIMAJOR_AXIS":"6925.360","REF_FRAME":"TEME","OBJECT_ID":"2021-018AC","DECAY_DATE":null,"BSTAR":"0.00009581600000","CLASSIFICATION_TYPE":"U","LAUNCH_DATE":"2021-03-11","CENTER_NAME":"EARTH","ECCENTRICITY":"0.00016410","RCS_SIZE":"LARGE","PERIAPSIS":"546.089","ARG_OF_PERICENTER":"72.8252","TLE_LINE1":"1 47813U 21018AC  22165.56967745  .00001146  00000-0  95816-4 0  9995","GP_ID":"206168524","MEAN_MOTION_DDOT":"0.0000000000000","SITE":"AFETR","FILE":"3496199","REV_AT_EPOCH":"7132","MEAN_MOTION_DOT":"0.00001146","EPHEMERIS_TYPE":"0"},{"SITE":"AFETR","ARG_OF_PERICENTER":"47.0268","TLE_LINE1":"1 47814U 21018AD  22165.52728711 -.00000977  00000-0 -46721-4 0  9994","GP_ID":"206137569","MEAN_MOTION_DDOT":"0.0000000000000","MEAN_MOTION_DOT":"-0.00000977","EPHEMERIS_TYPE":"0","REV_AT_EPOCH":"7104","FILE":"3495970","CENTER_NAME":"EARTH","LAUNCH_DATE":"2021-03-11","CLASSIFICATION_TYPE":"U","BSTAR":"-0.00004672100000","RCS_SIZE":"MEDIUM","PERIAPSIS":"545.950","ECCENTRICITY":"0.00018400","MEAN_ELEMENT_THEORY":"SGP4","ELEMENT_SET_NO":"999","MEAN_ANOMALY":"313.0875","MEAN_MOTION":"15.06396664","TIME_SYSTEM":"UTC","TLE_LINE2":"2 47814  53.0532 255.5913 0001840  47.0268 313.0875 15.06396664 71049","NORAD_CAT_ID":"47814","DECAY_DATE":null,"OBJECT_ID":"2021-018AD","PERIOD":"95.592","REF_FRAME":"TEME","SEMIMAJOR_AXIS":"6925.359","COUNTRY_CODE":"US","OBJECT_TYPE":"PAYLOAD","INCLINATION":"53.0532","EPOCH":"2022-06-14T12:39:17.606304","APOAPSIS":"548.498","RA_OF_ASC_NODE":"255.5913","OBJECT_NAME":"STARLINK-2395"},{"COUNTRY_CODE":"US","OBJECT_TYPE":"PAYLOAD","INCLINATION":"53.0537","EPOCH":"2022-06-14T11:49:32.305728","APOAPSIS":"548.389","RA_OF_ASC_NODE":"250.7381","OBJECT_NAME":"STARLINK-2396","MEAN_ELEMENT_THEORY":"SGP4","ELEMENT_SET_NO":"999","MEAN_MOTION":"15.06392764","MEAN_ANOMALY":"306.4191","TLE_LINE2":"2 47815  53.0537 250.7381 0001665  53.6952 306.4191 15.06392764 71043","TIME_SYSTEM":"UTC","NORAD_CAT_ID":"47815","DECAY_DATE":null,"OBJECT_ID":"2021-018AE","PERIOD":"95.593","REF_FRAME":"TEME","SEMIMAJOR_AXIS":"6925.371","CENTER_NAME":"EARTH","LAUNCH_DATE":"2021-03-11","CLASSIFICATION_TYPE":"U","BSTAR":"-0.00017627000000","RCS_SIZE":"LARGE","PERIAPSIS":"546.083","ECCENTRICITY":"0.00016650","SITE":"AFETR","TLE_LINE1":"1 47815U 21018AE  22165.49273502 -.00002906  00000-0 -17627-3 0  9990","ARG_OF_PERICENTER":"53.6952","GP_ID":"206137819","MEAN_MOTION_DDOT":"0.0000000000000","MEAN_MOTION_DOT":"-0.00002906","EPHEMERIS_TYPE":"0","REV_AT_EPOCH":"7104","FILE":"3495970"},{"EPHEMERIS_TYPE":"0","MEAN_MOTION_DOT":"-0.00000766","REV_AT_EPOCH":"7099","FILE":"3496199","SITE":"AFETR","TLE_LINE1":"1 47816U 21018AF  22165.63417616 -.00000766  00000-0 -32493-4 0  9994","ARG_OF_PERICENTER":"59.6308","GP_ID":"206168773","MEAN_MOTION_DDOT":"0.0000000000000","RCS_SIZE":"LARGE","PERIAPSIS":"546.052","ECCENTRICITY":"0.00016490","CLASSIFICATION_TYPE":"U","LAUNCH_DATE":"2021-03-11","CENTER_NAME":"EARTH","BSTAR":"-0.00003249300000","OBJECT_ID":"2021-018AF","DECAY_DATE":null,"PERIOD":"95.592","SEMIMAJOR_AXIS":"6925.329","REF_FRAME":"TEME","MEAN_ELEMENT_THEORY":"SGP4","ELEMENT_SET_NO":"999","MEAN_MOTION":"15.06406418","MEAN_ANOMALY":"300.4844","NORAD_CAT_ID":"47816","TLE_LINE2":"2 47816  53.0539 255.1046 0001649  59.6308 300.4844 15.06406418 70990","TIME_SYSTEM":"UTC","EPOCH":"2022-06-14T15:13:12.820224","RA_OF_ASC_NODE":"255.1046","APOAPSIS":"548.336","OBJECT_NAME":"STARLINK-2399","OBJECT_TYPE":"PAYLOAD","COUNTRY_CODE":"US","INCLINATION":"53.0539"}];
